{"type": "FeatureCollection", "features": [ {"type": "Feature", "properties": {"norad_id": 66799, "name": "STARLINK-36044", "group": "last-30-days", "lat": 19.74037617712938, "lon": -154.89874212546715, "alt_km": 412.5690036382157, "timestamp": "2025-12-24T07:45:04.932560+00:00", "meta": {"OBJECT_NAME": "STARLINK-36044", "OBJECT_ID": "2025-278J", "EPOCH": "2025-12-24T00:00:00.999648", "MEAN_MOTION": 15.50483043, "ECCENTRICITY": 0.00016095, "INCLINATION": 42.9999, "RA_OF_ASC_NODE": 184.3411, "ARG_OF_PERICENTER": 264.3487, "MEAN_ANOMALY": 120.5122, "EPHEMERIS_TYPE": 0, "CLASSIFICATION_TYPE": "U", "NORAD_CAT_ID": 66799, "ELEMENT_SET_NO": 999, "REV_AT_EPOCH": 476, "BSTAR": 0.0019724342, "MEAN_MOTION_DOT": 0.00116713, "MEAN_MOTION_DDOT": 0}, "tle": {"line1": "1 66799U 25278J   25358.00001157  .00116713  00000+0  19724-2 0  9991", "line2": "2 66799  42.9999 184.3411 0001609 264.3487 120.5122 15.50483043  4766"}}, "geometry": {"type": "Point", "coordinates": [-154.89874212546715, 19.74037617712938]}}, {"type": "Feature", "properties": {"norad_id": 66800, "name": "STARLINK-35996", "group": "last-30-days", "lat": 22.125987635655235, "lon": -151.68849271562962, "alt_km": 412.0515528572505, "timestamp": "2025-12-24T07:45:04.932570+00:00", "meta": {"OBJECT_NAME": "STARLINK-35996", "OBJECT_ID": "2025-278K", "EPOCH": "2025-12-24T00:00:00.999648", "MEAN_MOTION": 15.50481575, "ECCENTRICITY": 0.00014977, "INCLINATION": 42.9998, "RA_OF_ASC_NODE": 184.3312, "ARG_OF_PERICENTER": 274.6083, "MEAN_ANOMALY": 114.0893, "EPHEMERIS_TYPE": 0, "CLASSIFICATION_TYPE": "U", "NORAD_CAT_ID": 66800, "ELEMENT_SET_NO": 999, "REV_AT_EPOCH": 455, "BSTAR": 0.0019949109, "MEAN_MOTION_DOT": 0.0011806, "MEAN_MOTION_DDOT": 0}, "tle": {"line1": "1 66800U 25278K   25358.00001157  .00118060  00000+0  19949-2 0  9990", "line2": "2 66800  42.9998 184.3312 0001497 274.6083 114.0893 15.50481575  4557"}}, "geometry": {"type": "Point", "coordinates": [-151.68849271562962, 22.125987635655235]}}, {"type": "Feature", "properties": {"norad_id": 66801, "name": "STARLINK-36080", "group": "last-30-days", "lat": 27.774385517990154, "lon": -143.1673322879805, "alt_km": 411.61933786501413, "timestamp": "2025-12-24T07:45:04.932580+00:00", "meta": {"OBJECT_NAME": "STARLINK-36080", "OBJECT_ID": "2025-278L", "EPOCH": "2025-12-24T00:00:00.999648", "MEAN_MOTION": 15.50486643, "ECCENTRICITY": 0.00020777, "INCLINATION": 42.9999, "RA_OF_ASC_NODE": 184.3066, "ARG_OF_PERICENTER": 267.4184, "MEAN_ANOMALY": 130.8423, "EPHEMERIS_TYPE": 0, "CLASSIFICATION_TYPE": "U", "NORAD_CAT_ID": 66801, "ELEMENT_SET_NO": 999, "REV_AT_EPOCH": 476, "BSTAR": 0.0021391523, "MEAN_MOTION_DOT": 0.00126789, "MEAN_MOTION_DDOT": 0}, "tle": {"line1": "1 66801U 25278L   25358.00001157  .00126789  00000+0  21392-2 0  9993", "line2": "2 66801  42.9999 184.3066 0002077 267.4184 130.8423 15.50486643  4761"}}, "geometry": {"type": "Point", "coordinates": [-143.1673322879805, 27.774385517990154]}}, {"type": "Feature", "properties": {"norad_id": 66802, "name": "STARLINK-35604", "group": "last-30-days", "lat": 20.937741238229354, "lon": -153.31051073291593, "alt_km": 412.43778769689743, "timestamp": "2025-12-24T07:45:04.932590+00:00", "meta": {"OBJECT_NAME": "STARLINK-35604", "OBJECT_ID": "2025-278M", "EPOCH": "2025-12-24T00:00:00.999648", "MEAN_MOTION": 15.50482144, "ECCENTRICITY": 0.00020029, "INCLINATION": 42.9997, "RA_OF_ASC_NODE": 184.336, "ARG_OF_PERICENTER": 269.7466, "MEAN_ANOMALY": 117.02, "EPHEMERIS_TYPE": 0, "CLASSIFICATION_TYPE": "U", "NORAD_CAT_ID": 66802, "ELEMENT_SET_NO": 999, "REV_AT_EPOCH": 476, "BSTAR": 0.0021475248, "MEAN_MOTION_DOT": 0.00127274, "MEAN_MOTION_DDOT": 0}, "tle": {"line1": "1 66802U 25278M   25358.00001157  .00127274  00000+0  21475-2 0  9996", "line2": "2 66802  42.9997 184.3360 0002002 269.7466 117.0200 15.50482144  4765"}}, "geometry": {"type": "Point", "coordinates": [-153.31051073291593, 20.937741238229354]}}, {"type": "Feature", "properties": {"norad_id": 66803, "name": "STARLINK-35565", "group": "last-30-days", "lat": 22.679273268382808, "lon": -150.91532515812904, "alt_km": 416.84282960267956, "timestamp": "2025-12-24T07:45:04.932600+00:00", "meta": {"OBJECT_NAME": "STARLINK-35565", "OBJECT_ID": "2025-278N", "EPOCH": "2025-12-24T00:00:00.999648", "MEAN_MOTION": 15.50429579, "ECCENTRICITY": 0.00019281, "INCLINATION": 42.999, "RA_OF_ASC_NODE": 184.3267, "ARG_OF_PERICENTER": 269.7741, "MEAN_ANOMALY": 120.7617, "EPHEMERIS_TYPE": 0, "CLASSIFICATION_TYPE": "U", "NORAD_CAT_ID": 66803, "ELEMENT_SET_NO": 999, "REV_AT_EPOCH": 485, "BSTAR": -0.038661036, "MEAN_MOTION_DOT": -0.02013957, "MEAN_MOTION_DDOT": 0}, "tle": {"line1": "1 66803U 25278N   25358.00001157 -.02013957  00000+0 -38661-1 0  9997", "line2": "2 66803  42.9990 184.3267 0001928 269.7741 120.7617 15.50429579  4853"}}, "geometry": {"type": "Point", "coordinates": [-150.91532515812904, 22.679273268382808]}}, {"type": "Feature", "properties": {"norad_id": 66804, "name": "STARLINK-36038", "group": "last-30-days", "lat": 24.240946346962325, "lon": -148.67066614570095, "alt_km": 413.86177483565916, "timestamp": "2025-12-24T07:45:04.932612+00:00", "meta": {"OBJECT_NAME": "STARLINK-36038", "OBJECT_ID": "2025-278P", "EPOCH": "2025-12-24T00:00:00.999648", "MEAN_MOTION": 15.50822678, "ECCENTRICITY": 0.00015662, "INCLINATION": 42.9996, "RA_OF_ASC_NODE": 184.3224, "ARG_OF_PERICENTER": 292.6547, "MEAN_ANOMALY": 99.8096, "EPHEMERIS_TYPE": 0, "CLASSIFICATION_TYPE": "U", "NORAD_CAT_ID": 66804, "ELEMENT_SET_NO": 999, "REV_AT_EPOCH": 476, "BSTAR": -0.028841005, "MEAN_MOTION_DOT": -0.01541628, "MEAN_MOTION_DDOT": 0}, "tle": {"line1": "1 66804U 25278P   25358.00001157 -.01541628  00000+0 -28841-1 0  9997", "line2": "2 66804  42.9996 184.3224 0001566 292.6547  99.8096 15.50822678  4764"}}, "geometry": {"type": "Point", "coordinates": [-148.67066614570095, 24.240946346962325]}}, {"type": "Feature", "properties": {"norad_id": 66805, "name": "STARLINK-36049", "group": "last-30-days", "lat": 26.683772429023616, "lon": -144.93869810109445, "alt_km": 411.782223404698, "timestamp": "2025-12-24T07:45:04.932625+00:00", "meta": {"OBJECT_NAME": "STARLINK-36049", "OBJECT_ID": "2025-278Q", "EPOCH": "2025-12-24T00:00:00.999648", "MEAN_MOTION": 15.50488496, "ECCENTRICITY": 0.00020872, "INCLINATION": 42.9998, "RA_OF_ASC_NODE": 184.311, "ARG_OF_PERICENTER": 266.5932, "MEAN_ANOMALY": 129.7492, "EPHEMERIS_TYPE": 0, "CLASSIFICATION_TYPE": "U", "NORAD_CAT_ID": 66805, "ELEMENT_SET_NO": 999, "REV_AT_EPOCH": 476, "BSTAR": 0.0020809196, "MEAN_MOTION_DOT": 0.00123281, "MEAN_MOTION_DDOT": 0}, "tle": {"line1": "1 66805U 25278Q   25358.00001157  .00123281  00000+0  20809-2 0  9993", "line2": "2 66805  42.9998 184.3110 0002087 266.5932 129.7492 15.50488496  4767"}}, "geometry": {"type": "Point", "coordinates": [-144.93869810109445, 26.683772429023616]}}, {"type": "Feature", "properties": {"norad_id": 66806, "name": "STARLINK-36069", "group": "last-30-days", "lat": 25.580216926385123, "lon": -146.6620462972684, "alt_km": 411.97237561131624, "timestamp": "2025-12-24T07:45:04.932635+00:00", "meta": {"OBJECT_NAME": "STARLINK-36069", "OBJECT_ID": "2025-278R", "EPOCH": "2025-12-24T00:00:00.999648", "MEAN_MOTION": 15.50554677, "ECCENTRICITY": 0.0002169, "INCLINATION": 42.9996, "RA_OF_ASC_NODE": 184.316, "ARG_OF_PERICENTER": 268.1807, "MEAN_ANOMALY": 126.2261, "EPHEMERIS_TYPE": 0, "CLASSIFICATION_TYPE": "U", "NORAD_CAT_ID": 66806, "ELEMENT_SET_NO": 999, "REV_AT_EPOCH": 456, "BSTAR": 1.6546099e-05, "MEAN_MOTION_DOT": 6.28e-06, "MEAN_MOTION_DDOT": 0}, "tle": {"line1": "1 66806U 25278R   25358.00001157  .00000628  00000+0  16546-4 0  9998", "line2": "2 66806  42.9996 184.3160 0002169 268.1807 126.2261 15.50554677  4560"}}, "geometry": {"type": "Point", "coordinates": [-146.6620462972684, 25.580216926385123]}}, {"type": "Feature", "properties": {"norad_id": 66807, "name": "STARLINK-36000", "group": "last-30-days", "lat": 28.83830306628444, "lon": -141.36623604281985, "alt_km": 411.34817107349954, "timestamp": "2025-12-24T07:45:04.932645+00:00", "meta": {"OBJECT_NAME": "STARLINK-36000", "OBJECT_ID": "2025-278S", "EPOCH": "2025-12-24T00:00:00.999648", "MEAN_MOTION": 15.50494238, "ECCENTRICITY": 0.00017015, "INCLINATION": 42.9997, "RA_OF_ASC_NODE": 184.3021, "ARG_OF_PERICENTER": 263.2761, "MEAN_ANOMALY": 136.8943, "EPHEMERIS_TYPE": 0, "CLASSIFICATION_TYPE": "U", "NORAD_CAT_ID": 66807, "ELEMENT_SET_NO": 999, "REV_AT_EPOCH": 482, "BSTAR": 0.0019949701, "MEAN_MOTION_DOT": 0.00118119, "MEAN_MOTION_DDOT": 0}, "tle": {"line1": "1 66807U 25278S   25358.00001157  .00118119  00000+0  19950-2 0  9994", "line2": "2 66807  42.9997 184.3021 0001701 263.2761 136.8943 15.50494238  4823"}}, "geometry": {"type": "Point", "coordinates": [-141.36623604281985, 28.83830306628444]}}, {"type": "Feature", "properties": {"norad_id": 66808, "name": "STARLINK-36071", "group": "last-30-days", "lat": 29.880771467484816, "lon": -139.52346202324918, "alt_km": 410.9981897847356, "timestamp": "2025-12-24T07:45:04.932657+00:00", "meta": {"OBJECT_NAME": "STARLINK-36071", "OBJECT_ID": "2025-278T", "EPOCH": "2025-12-24T00:00:00.999648", "MEAN_MOTION": 15.5049471, "ECCENTRICITY": 0.0001598, "INCLINATION": 42.9999, "RA_OF_ASC_NODE": 184.2974, "ARG_OF_PERICENTER": 274.7309, "MEAN_ANOMALY": 127.3536, "EPHEMERIS_TYPE": 0, "CLASSIFICATION_TYPE": "U", "NORAD_CAT_ID": 66808, "ELEMENT_SET_NO": 999, "REV_AT_EPOCH": 476, "BSTAR": 0.0019988918, "MEAN_MOTION_DOT": 0.00118357, "MEAN_MOTION_DDOT": 0}, "tle": {"line1": "1 66808U 25278T   25358.00001157  .00118357  00000+0  19989-2 0  9991", "line2": "2 66808  42.9999 184.2974 0001598 274.7309 127.3536 15.50494710  4762"}}, "geometry": {"type": "Point", "coordinates": [-139.52346202324918, 29.880771467484816]}}]}